start=new Date('2022-05-05T00:00:00.000Z').valueOf();
sats=[{"TLE_LINE2":"2 51714  53.2187 155.3792 0001856  37.1968 264.5185 15.08815066  3635","APOAPSIS":"541.106","BSTAR":"0.00266750000000","OBJECT_NAME":"STARLINK-3528","SEMIMAJOR_AXIS":"6917.957","ECCENTRICITY":"0.00018560","CLASSIFICATION_TYPE":"U","RA_OF_ASC_NODE":"155.3792","ELEMENT_SET_NO":"999","EPHEMERIS_TYPE":"0","TIME_SYSTEM":"UTC","REV_AT_EPOCH":"363","MEAN_ELEMENT_THEORY":"SGP4","OBJECT_TYPE":"PAYLOAD","INCLINATION":"53.2187","CENTER_NAME":"EARTH","EPOCH":"2022-05-04T22:00:01.999584","TLE_LINE1":"1 51714U 22016A   22124.91668981  .00042392  00000-0  26675-2 0  9996","OBJECT_ID":"2022-016A","NORAD_CAT_ID":"51714","LAUNCH_DATE":"2022-02-21","MEAN_MOTION_DOT":"0.00042392","MEAN_MOTION_DDOT":"0.0000000000000","MEAN_ANOMALY":"264.5185","MEAN_MOTION":"15.08815066","PERIAPSIS":"538.538","RCS_SIZE":"LARGE","SITE":"AFETR","COUNTRY_CODE":"US","FILE":"3429148","DECAY_DATE":null,"REF_FRAME":"TEME","PERIOD":"95.439","GP_ID":"202719266","ARG_OF_PERICENTER":"37.1968"},{"RA_OF_ASC_NODE":"155.3780","ELEMENT_SET_NO":"999","SEMIMAJOR_AXIS":"6917.913","BSTAR":"0.00273370000000","OBJECT_NAME":"STARLINK-3533","APOAPSIS":"541.235","TLE_LINE2":"2 51715  53.2182 155.3780 0002107  41.8611 319.7674 15.08829415  3634","CLASSIFICATION_TYPE":"U","ECCENTRICITY":"0.00021070","EPOCH":"2022-05-04T22:00:01.999584","TLE_LINE1":"1 51715U 22016B   22124.91668981  .00043475  00000-0  27337-2 0  9996","CENTER_NAME":"EARTH","INCLINATION":"53.2182","NORAD_CAT_ID":"51715","OBJECT_ID":"2022-016B","EPHEMERIS_TYPE":"0","OBJECT_TYPE":"PAYLOAD","REV_AT_EPOCH":"363","MEAN_ELEMENT_THEORY":"SGP4","TIME_SYSTEM":"UTC","PERIAPSIS":"538.320","SITE":"AFETR","RCS_SIZE":"LARGE","MEAN_MOTION":"15.08829415","MEAN_MOTION_DOT":"0.00043475","MEAN_MOTION_DDOT":"0.0000000000000","MEAN_ANOMALY":"319.7674","LAUNCH_DATE":"2022-02-21","FILE":"3429148","GP_ID":"202719183","ARG_OF_PERICENTER":"41.8611","PERIOD":"95.438","REF_FRAME":"TEME","DECAY_DATE":null,"COUNTRY_CODE":"US"},{"MEAN_MOTION":"15.08833537","LAUNCH_DATE":"2022-02-21","MEAN_MOTION_DOT":"0.00043440","MEAN_MOTION_DDOT":"0.0000000000000","MEAN_ANOMALY":"281.8069","RCS_SIZE":"LARGE","SITE":"AFETR","PERIAPSIS":"538.434","COUNTRY_CODE":"US","PERIOD":"95.438","REF_FRAME":"TEME","ARG_OF_PERICENTER":"39.8220","GP_ID":"202718752","DECAY_DATE":null,"FILE":"3429148","CLASSIFICATION_TYPE":"U","ECCENTRICITY":"0.00019240","OBJECT_NAME":"STARLINK-3543","BSTAR":"0.00273120000000","SEMIMAJOR_AXIS":"6917.900","TLE_LINE2":"2 51716  53.2194 155.3794 0001924  39.8220 281.8069 15.08833537  3628","APOAPSIS":"541.096","ELEMENT_SET_NO":"999","RA_OF_ASC_NODE":"155.3794","OBJECT_TYPE":"PAYLOAD","TIME_SYSTEM":"UTC","REV_AT_EPOCH":"362","MEAN_ELEMENT_THEORY":"SGP4","EPHEMERIS_TYPE":"0","NORAD_CAT_ID":"51716","OBJECT_ID":"2022-016C","CENTER_NAME":"EARTH","EPOCH":"2022-05-04T22:00:01.999584","TLE_LINE1":"1 51716U 22016C   22124.91668981  .00043440  00000-0  27312-2 0  9992","INCLINATION":"53.2194"},{"INCLINATION":"53.2188","TLE_LINE1":"1 51717U 22016D   22124.91668981  .00017386  00000-0  11076-2 0  9993","EPOCH":"2022-05-04T22:00:01.999584","CENTER_NAME":"EARTH","OBJECT_ID":"2022-016D","NORAD_CAT_ID":"51717","EPHEMERIS_TYPE":"0","MEAN_ELEMENT_THEORY":"SGP4","REV_AT_EPOCH":"363","TIME_SYSTEM":"UTC","OBJECT_TYPE":"PAYLOAD","RA_OF_ASC_NODE":"155.3779","ELEMENT_SET_NO":"999","APOAPSIS":"540.978","TLE_LINE2":"2 51717  53.2188 155.3779 0001807  48.7957 292.8572 15.08845845  3638","SEMIMAJOR_AXIS":"6917.863","BSTAR":"0.00110760000000","OBJECT_NAME":"STARLINK-3445","ECCENTRICITY":"0.00018070","CLASSIFICATION_TYPE":"U","FILE":"3429148","DECAY_DATE":null,"ARG_OF_PERICENTER":"48.7957","GP_ID":"202718759","REF_FRAME":"TEME","PERIOD":"95.437","COUNTRY_CODE":"US","PERIAPSIS":"538.477","SITE":"AFETR","RCS_SIZE":"LARGE","MEAN_MOTION_DOT":"0.00017386","MEAN_MOTION_DDOT":"0.0000000000000","MEAN_ANOMALY":"292.8572","LAUNCH_DATE":"2022-02-21","MEAN_MOTION":"15.08845845"},{"NORAD_CAT_ID":"51718","OBJECT_ID":"2022-016E","CENTER_NAME":"EARTH","EPOCH":"2022-05-04T22:00:01.999584","TLE_LINE1":"1 51718U 22016E   22124.91668981  .00042720  00000-0  26863-2 0  9994","INCLINATION":"53.2128","OBJECT_TYPE":"PAYLOAD","TIME_SYSTEM":"UTC","REV_AT_EPOCH":"362","MEAN_ELEMENT_THEORY":"SGP4","EPHEMERIS_TYPE":"0","ELEMENT_SET_NO":"999","RA_OF_ASC_NODE":"155.3916","CLASSIFICATION_TYPE":"U","ECCENTRICITY":"0.00017050","BSTAR":"0.00268630000000","OBJECT_NAME":"STARLINK-3546","SEMIMAJOR_AXIS":"6917.891","TLE_LINE2":"2 51718  53.2128 155.3916 0001705  46.9822  14.6470 15.08836677  3623","APOAPSIS":"540.935","PERIOD":"95.438","REF_FRAME":"TEME","ARG_OF_PERICENTER":"46.9822","GP_ID":"202718922","DECAY_DATE":null,"FILE":"3429148","COUNTRY_CODE":"US","RCS_SIZE":"LARGE","SITE":"AFETR","PERIAPSIS":"538.576","MEAN_MOTION":"15.08836677","LAUNCH_DATE":"2022-02-21","MEAN_ANOMALY":"14.6470","MEAN_MOTION_DDOT":"0.0000000000000","MEAN_MOTION_DOT":"0.00042720"},{"PERIAPSIS":"538.561","RCS_SIZE":"LARGE","SITE":"AFETR","MEAN_MOTION":"15.08830221","LAUNCH_DATE":"2022-02-21","MEAN_MOTION_DOT":"0.00043207","MEAN_MOTION_DDOT":"0.0000000000000","MEAN_ANOMALY":"335.6356","FILE":"3429148","REF_FRAME":"TEME","PERIOD":"95.438","GP_ID":"202718839","ARG_OF_PERICENTER":"45.9561","DECAY_DATE":null,"COUNTRY_CODE":"US","RA_OF_ASC_NODE":"155.3765","ELEMENT_SET_NO":"999","OBJECT_NAME":"STARLINK-3540","BSTAR":"0.00271700000000","SEMIMAJOR_AXIS":"6917.910","TLE_LINE2":"2 51719  53.2179 155.3765 0001755  45.9561 335.6356 15.08830221  3624","APOAPSIS":"540.989","CLASSIFICATION_TYPE":"U","ECCENTRICITY":"0.00017550","CENTER_NAME":"EARTH","TLE_LINE1":"1 51719U 22016F   22124.91668981  .00043207  00000-0  27170-2 0  9998","EPOCH":"2022-05-04T22:00:01.999584","INCLINATION":"53.2179","NORAD_CAT_ID":"51719","OBJECT_ID":"2022-016F","EPHEMERIS_TYPE":"0","OBJECT_TYPE":"PAYLOAD","TIME_SYSTEM":"UTC","REV_AT_EPOCH":"362","MEAN_ELEMENT_THEORY":"SGP4"},{"RA_OF_ASC_NODE":"155.3916","ELEMENT_SET_NO":"999","TLE_LINE2":"2 51720  53.2140 155.3916 0002019  40.4893  41.2203 15.08821752  3635","APOAPSIS":"541.198","BSTAR":"0.00260540000000","OBJECT_NAME":"STARLINK-3526","SEMIMAJOR_AXIS":"6917.936","ECCENTRICITY":"0.00020190","CLASSIFICATION_TYPE":"U","INCLINATION":"53.2140","CENTER_NAME":"EARTH","TLE_LINE1":"1 51720U 22016G   22124.91668981  .00041401  00000-0  26054-2 0  9994","EPOCH":"2022-05-04T22:00:01.999584","OBJECT_ID":"2022-016G","NORAD_CAT_ID":"51720","EPHEMERIS_TYPE":"0","TIME_SYSTEM":"UTC","REV_AT_EPOCH":"363","MEAN_ELEMENT_THEORY":"SGP4","OBJECT_TYPE":"PAYLOAD","PERIAPSIS":"538.404","RCS_SIZE":"LARGE","SITE":"AFETR","LAUNCH_DATE":"2022-02-21","MEAN_MOTION_DDOT":"0.0000000000000","MEAN_MOTION_DOT":"0.00041401","MEAN_ANOMALY":"41.2203","MEAN_MOTION":"15.08821752","FILE":"3429148","DECAY_DATE":null,"REF_FRAME":"TEME","PERIOD":"95.439","GP_ID":"202719097","ARG_OF_PERICENTER":"40.4893","COUNTRY_CODE":"US"},{"OBJECT_TYPE":"PAYLOAD","TIME_SYSTEM":"UTC","REV_AT_EPOCH":"363","MEAN_ELEMENT_THEORY":"SGP4","EPHEMERIS_TYPE":"0","NORAD_CAT_ID":"51721","OBJECT_ID":"2022-016H","CENTER_NAME":"EARTH","TLE_LINE1":"1 51721U 22016H   22124.91668981  .00039720  00000-0  25006-2 0  9992","EPOCH":"2022-05-04T22:00:01.999584","INCLINATION":"53.2173","CLASSIFICATION_TYPE":"U","ECCENTRICITY":"0.00019460","OBJECT_NAME":"STARLINK-3524","BSTAR":"0.00250060000000","SEMIMAJOR_AXIS":"6917.920","TLE_LINE2":"2 51721  53.2173 155.3750 0001946  46.3783 355.3264 15.08826979  3631","APOAPSIS":"541.131","ELEMENT_SET_NO":"999","RA_OF_ASC_NODE":"155.3750","COUNTRY_CODE":"US","REF_FRAME":"TEME","PERIOD":"95.438","GP_ID":"202719104","ARG_OF_PERICENTER":"46.3783","DECAY_DATE":null,"FILE":"3429148","MEAN_MOTION":"15.08826979","LAUNCH_DATE":"2022-02-21","MEAN_MOTION_DDOT":"0.0000000000000","MEAN_ANOMALY":"355.3264","MEAN_MOTION_DOT":"0.00039720","RCS_SIZE":"LARGE","SITE":"AFETR","PERIAPSIS":"538.439"},{"SITE":"AFETR","RCS_SIZE":"LARGE","PERIAPSIS":"538.482","MEAN_MOTION_DOT":"0.00041021","MEAN_MOTION_DDOT":"0.0000000000000","MEAN_ANOMALY":"78.2618","LAUNCH_DATE":"2022-02-21","MEAN_MOTION":"15.08824758","DECAY_DATE":null,"ARG_OF_PERICENTER":"43.4167","GP_ID":"202719267","REF_FRAME":"TEME","PERIOD":"95.439","FILE":"3429148","COUNTRY_CODE":"US","ELEMENT_SET_NO":"999","RA_OF_ASC_NODE":"155.3901","ECCENTRICITY":"0.00018940","CLASSIFICATION_TYPE":"U","APOAPSIS":"541.102","TLE_LINE2":"2 51722  53.2129 155.3901 0001894  43.4167  78.2618 15.08824758  3634","SEMIMAJOR_AXIS":"6917.927","BSTAR":"0.00258160000000","OBJECT_NAME":"STARLINK-3535","OBJECT_ID":"2022-016J","NORAD_CAT_ID":"51722","INCLINATION":"53.2129","EPOCH":"2022-05-04T22:00:01.999584","TLE_LINE1":"1 51722U 22016J   22124.91668981  .00041021  00000-0  25816-2 0  9999","CENTER_NAME":"EARTH","REV_AT_EPOCH":"363","MEAN_ELEMENT_THEORY":"SGP4","TIME_SYSTEM":"UTC","OBJECT_TYPE":"PAYLOAD","EPHEMERIS_TYPE":"0"},{"OBJECT_ID":"2022-016K","NORAD_CAT_ID":"51723","INCLINATION":"53.2204","CENTER_NAME":"EARTH","EPOCH":"2022-05-04T22:00:01.999584","TLE_LINE1":"1 51723U 22016K   22124.91668981  .00028096  00000-0  17978-3 0  9998","TIME_SYSTEM":"UTC","REV_AT_EPOCH":"372","MEAN_ELEMENT_THEORY":"SGP4","OBJECT_TYPE":"PAYLOAD","EPHEMERIS_TYPE":"0","ELEMENT_SET_NO":"999","RA_OF_ASC_NODE":"140.1725","ECCENTRICITY":"0.00086660","CLASSIFICATION_TYPE":"U","TLE_LINE2":"2 51723  53.2204 140.1725 0008666 275.8130  45.4999 15.76083235  3720","APOAPSIS":"347.376","BSTAR":"0.00017978000000","OBJECT_NAME":"STARLINK-3531","SEMIMAJOR_AXIS":"6719.687","DECAY_DATE":null,"PERIOD":"91.366","REF_FRAME":"TEME","ARG_OF_PERICENTER":"275.8130","GP_ID":"202719184","FILE":"3429148","COUNTRY_CODE":"US","RCS_SIZE":"LARGE","SITE":"AFETR","PERIAPSIS":"335.729","LAUNCH_DATE":"2022-02-21","MEAN_MOTION_DDOT":"0.0000000000000","MEAN_MOTION_DOT":"0.00028096","MEAN_ANOMALY":"45.4999","MEAN_MOTION":"15.76083235"}];
